1 25112U 97084A   19273.07760561  .00000128  00000-0  86823-4 0  9995
2 25112  45.0157 224.9233 0007054 196.2100 163.8524 14.38970101140553
1 25112U 97084A   19273.35531226 +.00000140 +00000-0 +90951-4 0  9991
2 25112 045.0157 223.6050 0007058 197.4546 162.6061 14.38970348140564
1 25112U 97084A   19274.11900541  .00000153  00000-0  95051-4 0  9996
2 25112  45.0157 219.9792 0007115 201.0472 159.0084 14.38970882140703
1 25112U 97084A   19274.32728533 +.00000165 +00000-0 +98825-4 0  9993
2 25112 045.0157 218.9904 0007116 201.9718 158.0827 14.38971075140709
1 25112U 97084A   19275.29925804  .00000185  00000-0  10542-3 0  9991
2 25112  45.0158 214.3759 0007176 206.4965 153.5517 14.38971788140873
1 25112U 97084A   19276.34065703  .00000194  00000-0  10827-3 0  9997
2 25112  45.0159 209.4318 0007232 211.3436 148.6982 14.38972463141021
1 25112U 97084A   19276.89606964 +.00000197 +00000-0 +10901-3 0  9993
2 25112 045.0159 206.7949 0007261 213.8877 146.1509 14.38972811141079
1 25112U 97084A   19277.79861499  .00000179  00000-0  10331-3 0  9996
2 25112  45.0160 202.5101 0007307 218.0020 142.0314 14.38973252141230
1 25112U 97084A   19277.86804153 +.00000178 +00000-0 +10290-3 0  9991
2 25112 045.0160 202.1805 0007313 218.2886 141.7444 14.38973297141213
1 25112U 97084A   19278.84001323  .00000131  00000-0  87809-4 0  9998
2 25112  45.0160 197.5662 0007366 222.6936 137.3341 14.38973610141388
1 25112U 97084A   19279.88141127 +.00000090 +00000-0 +74855-4 0  9991
2 25112 045.0160 192.6223 0007404 227.2929 132.7297 14.38973968141502
1 25112U 97084A   19280.15911743  .00000082  00000-0  72185-4 0  9997
2 25112  45.0160 191.3040 0007409 228.4595 131.5619 14.38974054141571
1 25112U 97084A   19280.22854394 +.00000081 +00000-0 +71953-4 0  9994
2 25112 045.0160 190.9744 0007410 228.7729 131.2482 14.38974090141554
1 25112U 97084A   19281.20051506  .00000082  00000-0  72150-4 0  9998
2 25112  45.0159 186.3600 0007441 233.0315 126.9853 14.38974564141724
1 25112U 97084A   19281.82535352 +.00000085 +00000-0 +73132-4 0  9996
2 25112 045.0159 183.3935 0007467 235.7876 124.2266 14.38974851141785
1 25112U 97084A   19282.24191236  .00000103  00000-0  78815-4 0  9996
2 25112  45.0158 181.4160 0007474 237.5889 122.4238 14.38975151141878
1 25112U 97084A   19282.79732413 +.00000113 +00000-0 +82171-4 0  9995
2 25112 045.0158 178.7791 0007491 240.0407 119.9698 14.38975459141929
1 25112U 97084A   19283.76929439  .00000140  00000-0  90738-4 0  9997
2 25112  45.0157 174.1646 0007515 244.2884 115.7190 14.38976113142097
1 25112U 97084A   19283.83872085 +.00000136 +00000-0 +89560-4 0  9995
2 25112 045.0157 173.8350 0007518 244.5724 115.4347 14.38976127142078
1 25112U 97084A   19284.88011725 +.00000146 +00000-0 +92710-4 0  9999
2 25112 045.0157 168.8910 0007532 249.0611 110.9432 14.38976772142223
